LEMUR-1                 
1 40044U 14033AL  26117.35787441  .00002872  00000+0  33637-3 0  9992
2 40044  97.7806 268.3192 0047293 244.1053 115.5283 14.85019266637920
LEMUR-2-GREENBERG       
1 42837U 17042N   26117.41743671  .00020404  00000+0  70926-3 0  9994
2 42837  97.3810 298.3442 0009451 176.8618 183.2684 15.29721068480625
LEMUR-2-ANDIS           
1 42838U 17042P   26117.42480931  .00023722  00000+0  74974-3 0  9996
2 42838  97.3676 298.3761 0009417 179.9333 180.1912 15.32763257480675
LEMUR-2-MONSON          
1 42839U 17042Q   26117.45008008  .00015499  00000+0  59415-3 0  9996
2 42839  97.4066 298.4203 0007417 164.0782 196.0691 15.26573081480423
LEMUR-2-FURIAUS         
1 42840U 17042R   26117.43903345  .00023755  00000+0  85677-3 0  9997
2 42840  97.3765 296.4388 0006901 235.0637 124.9955 15.28502438480453
LEMUR-2-PETERG          
1 42841U 17042S   26117.44188676  .00019102  00000+0  62269-3 0  9994
2 42841  97.3993 302.4755 0004868 149.2090 210.9438 15.31847197480665
LEMUR-2-DEMBITZ         
1 42842U 17042T   26117.46281863  .00018076  00000+0  64895-3 0  9995
2 42842  97.3823 299.4389 0006991 186.6165 173.4983 15.28709030480592
LEMUR-2-ZACHARY         
1 42845U 17042W   26117.44855735  .00044488  00000+0  90766-3 0  9993
2 42845  97.3639 308.1642 0004151 184.3062 175.8152 15.46065772481354
LEMUR-2-KADI            
1 43184U 18014E   26117.30044339  .00244061  00000+0  14675-2 0  9998
2 43184  97.4557  45.2071 0006714  97.5361 262.6668 15.77019781453012
LEMUR-2-AMANDA-SVANTE   
1 48269U 21034B   26117.43594998  .00037191  00000+0  12267-2 0  9997
2 48269  97.5782 194.5031 0003938  94.6883 265.4807 15.31334160273284
LEMUR-2-SPECIAL-K       
1 48273U 21034F   26117.22229953  .00112571  00000+0  17769-2 0  9993
2 48273  97.5661 200.8990 0002280 161.9636 198.1698 15.53112134273754
LEMUR-2-EMBRIONOVIS     
1 56970U 23084AQ  26117.35174366  .00018657  00000+0  52940-3 0  9995
2 56970  97.6216 259.6746 0010116 132.4048 227.8053 15.36220602159874
LEMUR-2-MANO            
1 57390U 23100E   26117.08929860  .00361188  00000+0  18492-2 0  9991
2 57390  99.4434 156.4398 0013601 171.5796 188.5696 15.80206240154070
LEMUR-2-DEVERILL-M-T    
1 57391U 23100F   26117.30906193  .00030445  00000+0  83305-3 0  9996
2 57391  99.4523 141.4895 0006867 198.1198 161.9796 15.37298365153428
LEMUR-2-BASS            
1 58259U 23174D   26117.47178510  .00019692  00000+0  47150-3 0  9992
2 58259  97.3846 201.5437 0006433   4.1699 355.9600 15.41459381137544
LEMUR-2-JK0903EM1407    
1 58336U 23174CJ  26117.47726339  .00026604  00000+0  48950-3 0  9996
2 58336  97.3894 206.6383 0003684 288.1771  71.9079 15.49165500137875
