[{"OBJECT_NAME":"LEMUR-1","OBJECT_ID":"2014-033AL","EPOCH":"2026-04-27T08:35:20.349024","MEAN_MOTION":14.85019266,"ECCENTRICITY":0.0047293,"INCLINATION":97.7806,"RA_OF_ASC_NODE":268.3192,"ARG_OF_PERICENTER":244.1053,"MEAN_ANOMALY":115.5283,"EPHEMERIS_TYPE":0,"CLASSIFICATION_TYPE":"U","NORAD_CAT_ID":40044,"ELEMENT_SET_NO":999,"REV_AT_EPOCH":63792,"BSTAR":0.00033637,"MEAN_MOTION_DOT":2.872e-5,"MEAN_MOTION_DDOT":0},{"OBJECT_NAME":"LEMUR-2-GREENBERG","OBJECT_ID":"2017-042N","EPOCH":"2026-04-27T10:01:06.531744","MEAN_MOTION":15.29721068,"ECCENTRICITY":0.0009451,"INCLINATION":97.381,"RA_OF_ASC_NODE":298.3442,"ARG_OF_PERICENTER":176.8618,"MEAN_ANOMALY":183.2684,"EPHEMERIS_TYPE":0,"CLASSIFICATION_TYPE":"U","NORAD_CAT_ID":42837,"ELEMENT_SET_NO":999,"REV_AT_EPOCH":48062,"BSTAR":0.00070926,"MEAN_MOTION_DOT":0.00020404,"MEAN_MOTION_DDOT":0},{"OBJECT_NAME":"LEMUR-2-ANDIS","OBJECT_ID":"2017-042P","EPOCH":"2026-04-27T10:11:43.524384","MEAN_MOTION":15.32763257,"ECCENTRICITY":0.0009417,"INCLINATION":97.3676,"RA_OF_ASC_NODE":298.3761,"ARG_OF_PERICENTER":179.9333,"MEAN_ANOMALY":180.1912,"EPHEMERIS_TYPE":0,"CLASSIFICATION_TYPE":"U","NORAD_CAT_ID":42838,"ELEMENT_SET_NO":999,"REV_AT_EPOCH":48067,"BSTAR":0.00074974,"MEAN_MOTION_DOT":0.00023722,"MEAN_MOTION_DDOT":0},{"OBJECT_NAME":"LEMUR-2-MONSON","OBJECT_ID":"2017-042Q","EPOCH":"2026-04-27T10:48:06.918912","MEAN_MOTION":15.26573081,"ECCENTRICITY":0.0007417,"INCLINATION":97.4066,"RA_OF_ASC_NODE":298.4203,"ARG_OF_PERICENTER":164.0782,"MEAN_ANOMALY":196.0691,"EPHEMERIS_TYPE":0,"CLASSIFICATION_TYPE":"U","NORAD_CAT_ID":42839,"ELEMENT_SET_NO":999,"REV_AT_EPOCH":48042,"BSTAR":0.00059415,"MEAN_MOTION_DOT":0.00015499,"MEAN_MOTION_DDOT":0},{"OBJECT_NAME":"LEMUR-2-FURIAUS","OBJECT_ID":"2017-042R","EPOCH":"2026-04-27T10:32:12.490080","MEAN_MOTION":15.28502438,"ECCENTRICITY":0.0006901,"INCLINATION":97.3765,"RA_OF_ASC_NODE":296.4388,"ARG_OF_PERICENTER":235.0637,"MEAN_ANOMALY":124.9955,"EPHEMERIS_TYPE":0,"CLASSIFICATION_TYPE":"U","NORAD_CAT_ID":42840,"ELEMENT_SET_NO":999,"REV_AT_EPOCH":48045,"BSTAR":0.00085677,"MEAN_MOTION_DOT":0.00023755,"MEAN_MOTION_DDOT":0},{"OBJECT_NAME":"LEMUR-2-PETERG","OBJECT_ID":"2017-042S","EPOCH":"2026-04-27T10:36:19.016064","MEAN_MOTION":15.31847197,"ECCENTRICITY":0.0004868,"INCLINATION":97.3993,"RA_OF_ASC_NODE":302.4755,"ARG_OF_PERICENTER":149.209,"MEAN_ANOMALY":210.9438,"EPHEMERIS_TYPE":0,"CLASSIFICATION_TYPE":"U","NORAD_CAT_ID":42841,"ELEMENT_SET_NO":999,"REV_AT_EPOCH":48066,"BSTAR":0.00062269,"MEAN_MOTION_DOT":0.00019102,"MEAN_MOTION_DDOT":0},{"OBJECT_NAME":"LEMUR-2-DEMBITZ","OBJECT_ID":"2017-042T","EPOCH":"2026-04-27T11:06:27.529632","MEAN_MOTION":15.2870903,"ECCENTRICITY":0.0006991,"INCLINATION":97.3823,"RA_OF_ASC_NODE":299.4389,"ARG_OF_PERICENTER":186.6165,"MEAN_ANOMALY":173.4983,"EPHEMERIS_TYPE":0,"CLASSIFICATION_TYPE":"U","NORAD_CAT_ID":42842,"ELEMENT_SET_NO":999,"REV_AT_EPOCH":48059,"BSTAR":0.00064895,"MEAN_MOTION_DOT":0.00018076,"MEAN_MOTION_DDOT":0},{"OBJECT_NAME":"LEMUR-2-ZACHARY","OBJECT_ID":"2017-042W","EPOCH":"2026-04-27T10:45:55.355040","MEAN_MOTION":15.46065772,"ECCENTRICITY":0.0004151,"INCLINATION":97.3639,"RA_OF_ASC_NODE":308.1642,"ARG_OF_PERICENTER":184.3062,"MEAN_ANOMALY":175.8152,"EPHEMERIS_TYPE":0,"CLASSIFICATION_TYPE":"U","NORAD_CAT_ID":42845,"ELEMENT_SET_NO":999,"REV_AT_EPOCH":48135,"BSTAR":0.00090766,"MEAN_MOTION_DOT":0.00044488,"MEAN_MOTION_DDOT":0},{"OBJECT_NAME":"LEMUR-2-KADI","OBJECT_ID":"2018-014E","EPOCH":"2026-04-27T07:12:38.308896","MEAN_MOTION":15.77019781,"ECCENTRICITY":0.0006714,"INCLINATION":97.4557,"RA_OF_ASC_NODE":45.2071,"ARG_OF_PERICENTER":97.5361,"MEAN_ANOMALY":262.6668,"EPHEMERIS_TYPE":0,"CLASSIFICATION_TYPE":"U","NORAD_CAT_ID":43184,"ELEMENT_SET_NO":999,"REV_AT_EPOCH":45301,"BSTAR":0.0014675,"MEAN_MOTION_DOT":0.00244061,"MEAN_MOTION_DDOT":0},{"OBJECT_NAME":"LEMUR-2-AMANDA-SVANTE","OBJECT_ID":"2021-034B","EPOCH":"2026-04-27T10:27:46.078272","MEAN_MOTION":15.3133416,"ECCENTRICITY":0.0003938,"INCLINATION":97.5782,"RA_OF_ASC_NODE":194.5031,"ARG_OF_PERICENTER":94.6883,"MEAN_ANOMALY":265.4807,"EPHEMERIS_TYPE":0,"CLASSIFICATION_TYPE":"U","NORAD_CAT_ID":48269,"ELEMENT_SET_NO":999,"REV_AT_EPOCH":27328,"BSTAR":0.0012267,"MEAN_MOTION_DOT":0.00037191,"MEAN_MOTION_DDOT":0},{"OBJECT_NAME":"LEMUR-2-SPECIAL-K","OBJECT_ID":"2021-034F","EPOCH":"2026-04-27T05:20:06.679392","MEAN_MOTION":15.53112134,"ECCENTRICITY":0.000228,"INCLINATION":97.5661,"RA_OF_ASC_NODE":200.899,"ARG_OF_PERICENTER":161.9636,"MEAN_ANOMALY":198.1698,"EPHEMERIS_TYPE":0,"CLASSIFICATION_TYPE":"U","NORAD_CAT_ID":48273,"ELEMENT_SET_NO":999,"REV_AT_EPOCH":27375,"BSTAR":0.0017769,"MEAN_MOTION_DOT":0.00112571,"MEAN_MOTION_DDOT":0},{"OBJECT_NAME":"LEMUR-2-EMBRIONOVIS","OBJECT_ID":"2023-084AQ","EPOCH":"2026-04-27T08:26:30.652224","MEAN_MOTION":15.36220602,"ECCENTRICITY":0.0010116,"INCLINATION":97.6216,"RA_OF_ASC_NODE":259.6746,"ARG_OF_PERICENTER":132.4048,"MEAN_ANOMALY":227.8053,"EPHEMERIS_TYPE":0,"CLASSIFICATION_TYPE":"U","NORAD_CAT_ID":56970,"ELEMENT_SET_NO":999,"REV_AT_EPOCH":15987,"BSTAR":0.0005294,"MEAN_MOTION_DOT":0.00018657,"MEAN_MOTION_DDOT":0},{"OBJECT_NAME":"LEMUR-2-MANO","OBJECT_ID":"2023-100E","EPOCH":"2026-04-27T02:08:35.399040","MEAN_MOTION":15.8020624,"ECCENTRICITY":0.00136017,"INCLINATION":99.4434,"RA_OF_ASC_NODE":156.4398,"ARG_OF_PERICENTER":171.5796,"MEAN_ANOMALY":188.5696,"EPHEMERIS_TYPE":0,"CLASSIFICATION_TYPE":"U","NORAD_CAT_ID":57390,"ELEMENT_SET_NO":999,"REV_AT_EPOCH":15407,"BSTAR":0.0018492247,"MEAN_MOTION_DOT":0.00361188,"MEAN_MOTION_DDOT":0},{"OBJECT_NAME":"LEMUR-2-DEVERILL-M-T","OBJECT_ID":"2023-100F","EPOCH":"2026-04-27T07:25:02.950752","MEAN_MOTION":15.37298365,"ECCENTRICITY":0.0006867,"INCLINATION":99.4523,"RA_OF_ASC_NODE":141.4895,"ARG_OF_PERICENTER":198.1198,"MEAN_ANOMALY":161.9796,"EPHEMERIS_TYPE":0,"CLASSIFICATION_TYPE":"U","NORAD_CAT_ID":57391,"ELEMENT_SET_NO":999,"REV_AT_EPOCH":15342,"BSTAR":0.00083305,"MEAN_MOTION_DOT":0.00030445,"MEAN_MOTION_DDOT":0},{"OBJECT_NAME":"LEMUR-2-BASS","OBJECT_ID":"2023-174D","EPOCH":"2026-04-27T11:19:22.232640","MEAN_MOTION":15.41459381,"ECCENTRICITY":0.0006433,"INCLINATION":97.3846,"RA_OF_ASC_NODE":201.5437,"ARG_OF_PERICENTER":4.1699,"MEAN_ANOMALY":355.96,"EPHEMERIS_TYPE":0,"CLASSIFICATION_TYPE":"U","NORAD_CAT_ID":58259,"ELEMENT_SET_NO":999,"REV_AT_EPOCH":13754,"BSTAR":0.0004715,"MEAN_MOTION_DOT":0.00019692,"MEAN_MOTION_DDOT":0},{"OBJECT_NAME":"LEMUR-2-JK0903EM1407","OBJECT_ID":"2023-174CJ","EPOCH":"2026-04-27T11:27:15.556896","MEAN_MOTION":15.491655,"ECCENTRICITY":0.0003684,"INCLINATION":97.3894,"RA_OF_ASC_NODE":206.6383,"ARG_OF_PERICENTER":288.1771,"MEAN_ANOMALY":71.9079,"EPHEMERIS_TYPE":0,"CLASSIFICATION_TYPE":"U","NORAD_CAT_ID":58336,"ELEMENT_SET_NO":999,"REV_AT_EPOCH":13787,"BSTAR":0.0004895,"MEAN_MOTION_DOT":0.00026604,"MEAN_MOTION_DDOT":0}]
